#dP2020  8 24  0  0  0.00000000      96 __u+U ITR00 FIT  IAC
## 2120  86400.00000000   900.00000000 59085 0.0000000000000
+  116   C01C02C03C04C05C06C07C08C09C10C11C12C13C14C16C19C20
+        C21C22C23C24C25C26C27C28C29C30C32C33C34C35C36C37C44
+        C45C46E01E02E03E04E05E07E08E09E11E12E13E14E15E18E19
+        E21E24E25E26E27E30E31E33E36G01G02G03G04G05G06G07G08
+        G09G10G11G12G13G15G16G17G18G19G20G21G22G24G25G26G27
+        G28G29G30G31G32J01J02J03R01R02R03R04R05R07R08R09R11
+        R12R13R14R15R16R17R18R19R20R21R22R23R24R26  0  0  0
++        13 13 13 13 13  8  8  8  8  8  8  8  8  8  8  8  8
++         8  8  8  8  8  8  8  8  8  8  8  8  8  8  8  8  0
++         0  0  5  5  5  5  5  4  5  5  5  6  4  4  5  5  4
++         4  5  5  4  4  5  5  5  4  3  4  3  3  4  3  4  4
++         3  3  4  3  3  4  4  3  3  3  3  3  3  3  3  4  4
++         3  4  4  4  3  9  8  8  6  5  5  5  5  5  5  5  5
++         6  6  5  6  6  5  5  6  6  5  7  6  6  8  0  0  0
%c M  cc GPS ccc cccc cccc cccc cccc ccccc ccccc ccccc ccccc
%c cc cc ccc ccc cccc cccc cccc cccc ccccc ccccc ccccc ccccc
%f  0.0000000  0.000000000  0.00000000000  0.000000000000000
%f  0.0000000  0.000000000  0.00000000000  0.000000000000000
%i    0    0    0    0      0      0      0      0         0
%i    0    0    0    0      0      0      0      0         0
/* INFORMATION & ANALYSIS CENTER (IAC)            RAPID DATA
/* S/V CLOCKS ARE ALIGNED TO GNSS TIME                      
/* G:C1WC2W R:C1PC2P E:C1XC5X C:C2IC6I J:C1CC2S             
/* PCV:IGS14_2118 OL/AL:FES2004  NONE     YN ORB:CoN CLK:CoN
*  2020 08 24 19 45  0.00000000
PC01 -34359.639531  24477.270569    543.539920   -201.843921
PC02   4362.189306  41902.351447   -938.323247    388.397914
PC03 -14725.063446  39480.225589   -875.340659    801.206031
PC04 -39605.878305  14478.046834    172.113129   -335.875167
PC05  21935.476432  35984.510579  -1175.352055   -118.153288
PC06 -11689.060170  37683.235127 -13795.269429    218.048582
PC07 -12019.962335  23549.921753  33077.395919     47.352267
PC08 -25585.000828  27363.617029 -19623.592107   -471.534506
PC09  -3763.134038  41773.568039   -132.829301    765.330565
PC10   2807.384236  29062.276747  30756.759304   -203.266298
PC11  -4819.893066 -22199.096324  16222.436030   -576.627228
PC12   7574.804226 -26832.217208   -532.835143    481.535306
PC13 -11568.799781  28346.169763 -29043.568835    612.607633
PC14 -15536.713152 -22043.825672   7073.886308    874.560959
PC16  -8649.230373  39772.360180 -10484.443571   -589.210247
PC19  20973.705820  18299.281203   2162.347392    521.523426
PC20   8785.637553  22339.662849 -14245.540651   -837.460527
PC21   9226.496755 -13153.442585  22828.179862   -668.885554
PC22  21285.284199   3606.292656  17700.020134   -764.733270
PC23 -27277.360268   4415.805545  -3868.244430   -851.171602
PC24    945.715163 -16718.482032 -22316.181071   -737.680172
PC25 -19371.426548  -7969.883392 -18445.056134   -732.866885
PC26  18855.139426 -15524.411324 -13470.789889    804.630891
PC27 -13097.449245  22737.495105   9461.082578    387.251616
PC28 -16930.040775   5437.180223  21509.845414   -178.685257
PC29  11411.314179  14566.359527 -20899.142320    274.402072
PC30   -869.396954  26794.997300  -7725.352091    365.875510
PC32  -9106.445282  13246.675951 -22801.120421   -889.238148
PC33 -21009.349177 -18234.864367  -2053.969372   -793.913122
PC34    581.024938 -26678.745501   8185.068773   -870.518163
PC35  16787.158871  -5770.271168 -21543.700871   -686.686968
PC36  18959.716260   8598.062860  18620.902086   -911.775789
PC37 -19781.670389  14863.975081  12941.906534   -910.581405
PC44      0.000000      0.000000      0.000000 999999.999999
PC45      0.000000      0.000000      0.000000 999999.999999
PC46      0.000000      0.000000      0.000000 999999.999999
PE01  29229.193735   4519.833595  -1227.230409   -926.396629
PE02 -29238.968836  -4437.222536   1350.131840    156.726747
PE03 -18880.396019  -7308.723239 -21588.085656   -335.306100
PE04  12262.465209 -14042.646727  22995.468428   -593.116813
PE05 -14514.433797 -24681.144742  -7492.216430   -351.902076
PE07   1721.768924  27494.090960 -10843.366156   -426.997704
PE08 -11890.623603  14333.041842 -23009.438247   6130.439029
PE09  -2014.343082 -27474.651769  10807.225387   5953.191293
PE11   9195.240962 -24792.584664  13298.416549   5020.254170
PE12  21307.366818 -19722.901243  -5790.173429   5639.702891
PE13  -9327.080897  24838.629722 -13127.692115    403.226151
PE14   5402.059212 -26246.634515  -7714.982337  -1131.594185
PE15 -21150.003157  19937.706535   5611.920582    855.097457
PE18   6823.995850  27943.788567  -7653.033319  -1237.357801
PE19  18860.353762   9699.605315  20654.103409     61.303103
PE21  19990.499801  14631.009801  16212.150464   -617.615905
PE24   1654.919994 -16473.126894 -24540.559367   5280.270313
PE25 -19867.637724 -14669.478747 -16301.667931   -515.598465
PE26   8435.519020  14896.486318 -24151.398359   2805.501889
PE27  -1137.430319  16499.656060  24559.354057    148.773762
PE30 -21922.150112   8294.345840  18080.462779   3639.725569
PE31  21487.476244  -8653.036827 -18416.812679   -473.781027
PE33  20541.508331  -3318.340862 -21052.227794   -463.391981
PE36  -7971.040529 -15146.187438  24148.256306    516.504048
PG01  -9959.274824  19409.750548 -15149.837128     35.198989
PG02  21759.314661 -14517.006988  -3845.585058   -506.861341
PG03    481.323333  16230.375981 -21115.413375   -279.537142
PG04   -817.787948  26281.079866  -3602.941656   -128.249281
PG05  19557.168226  -5083.997571  17186.388705    -19.557385
PG06  21275.547021  -2296.000685 -15706.405104   -319.046918
PG07   7679.433597  13561.644626  21808.202004   -357.482056
PG08  -7171.657663  21333.213994  13904.910889    -45.607126
PG09   8213.504091  24045.102395   7654.364195   -275.534129
PG10 -23963.610040 -11715.450857   1191.756490   -436.480862
PG11 -11117.803313  24300.223338  -1657.670907   -183.546893
PG12   1673.496078 -15690.820727 -21620.616318     76.279151
PG13  13012.370712 -13994.478671  18278.599412     38.840303
PG15   5006.502304 -22422.715166  12668.396416   -208.379096
PG16 -17974.523057   4520.757526  18975.660169   -200.004302
PG17  13502.851476  11025.237748 -19630.245906    315.874742
PG18  -7614.458582 -13099.443308  21800.465400    276.726005
PG19  14791.723749   2823.837332 -22179.335141   -114.080102
PG20 -18127.940014 -15008.696011  12461.546826    526.945206
PG21 -22732.006940   8338.015216  11327.276635     39.413801
PG22  -7811.962919  13848.081465 -21064.909161   -761.187670
PG24  11129.858459 -20693.594190 -12214.919629    -17.606384
PG25 -10607.883869 -17788.510939 -17012.078869     39.683593
PG26 -24971.924545  -3494.239476   8676.062257    267.024347
PG27 -12631.314772  11167.129916  20286.326072   -379.134889
PG28  22956.917072  13176.524833     58.115506    686.141067
PG29  -3754.779905 -25859.044689   4587.496012   -179.914153
PG30  16935.116673   6037.140056  19665.785387   -288.630131
PG31 -22583.798465   3372.262561 -13987.919232    -64.295530
PG32 -14980.463693  -9449.299974 -19753.273858    337.214701
PJ01 -20378.768930  20981.934720 -25777.949816   -185.613265
PJ02 -30929.486911  22433.242617  22660.760017     -2.770322
PJ03 -28811.184728  26936.122792  20016.580609     -0.654078
PR01 -17116.904673 -17257.189361  -7713.942974     66.537190
PR02 -12562.072833    225.421289 -22170.681810    442.495720
PR03   -825.350245  15571.961570 -20131.113513     20.846587
PR04  11355.190526  21820.959718  -6720.225640     60.914982
PR05  16982.389837  15861.477568  10504.474264     56.387393
PR07    373.506955 -16032.184535  19884.996300    -39.584268
PR08 -11260.297370 -21875.381803   6816.686547    -54.185935
PR09  22752.965247  -6759.237286  -9421.012413    150.759483
PR11  -7707.126871 -10083.045534 -22096.000119    -35.215585
PR12 -22137.681062  -3798.174680 -12071.331410    158.160084
PR13 -24478.493683   4906.539141   5207.985646    -42.897478
PR14 -12269.645089  10594.990192  19706.150210     54.805268
PR15   6747.512661  10153.696344  22433.945002    106.981447
PR16  22492.131427   3144.038523  11478.380679     -5.669064
PR17 -11516.169755  22740.939467   1479.889955    352.374995
PR18  -2527.378957  20640.444279 -14733.193236     46.963318
PR19   7280.846701   8291.088617 -23004.455024   -108.213831
PR20  14570.159931 -11292.825823 -17646.148331   -420.099499
PR21  11149.987073 -22917.375986   -450.402414   -147.376377
PR22   1944.501829 -20079.081389  15647.443694    -69.730374
PR23 -10982.433454   -935.826656  22991.352654    327.470208
PR24 -14855.907830  11889.263975  17011.228394     10.858958
PR26  13436.867750  -6584.281957 -20640.148213   -361.878189
EOF
